{
  "type": "FeatureCollection",
  "features": [
    {
      "type": "Feature",
      "properties": {
        "norad_id": 40376,
        "name": "SMAP",
        "group": "resource",
        "lat": -80.22501811923306,
        "lon": 53.3191762124122,
        "alt_km": 690.5687858385481,
        "timestamp": "2025-12-18T14:52:07.687645+00:00",
        "meta_object_name": "SMAP",
        "meta_object_id": "2015-003A",
        "meta_epoch": "2025-12-18T05:24:30.698784",
        "meta_mean_motion": 14.6335199,
        "meta_eccentricity": 0.00012161,
        "meta_inclination": 98.1288,
        "meta_ra_of_asc_node": 356.8701,
        "meta_arg_of_pericenter": 91.1406,
        "meta_mean_anomaly": 268.9936,
        "meta_ephemeris_type": 0,
        "meta_classification_type": "U",
        "meta_norad_cat_id": 40376,
        "meta_element_set_no": 999,
        "meta_rev_at_epoch": 58115,
        "meta_bstar": 9.8047665e-05,
        "meta_mean_motion_dot": 4.6e-06,
        "meta_mean_motion_ddot": 0,
        "tle_line1": "1 40376U 15003A   25352.22535531  .00000460  00000+0  98048-4 0  9994",
        "tle_line2": "2 40376  98.1288 356.8701 0001216  91.1406 268.9936 14.63351990581153"
      },
      "geometry": {
        "type": "Point",
        "coordinates": [
          53.3191762124122,
          -80.22501811923306
        ]
      }
    },
    {
      "type": "Feature",
      "properties": {
        "norad_id": 40536,
        "name": "KOMPSAT-3A",
        "group": "resource",
        "lat": -52.26136209920565,
        "lon": 137.2521967592794,
        "alt_km": 442.6425102008907,
        "timestamp": "2025-12-18T14:52:07.687655+00:00",
        "meta_object_name": "KOMPSAT-3A",
        "meta_object_id": "2015-014A",
        "meta_epoch": "2025-12-18T06:05:15.124128",
        "meta_mean_motion": 15.44145175,
        "meta_eccentricity": 0.00052778,
        "meta_inclination": 97.6786,
        "meta_ra_of_asc_node": 326.9053,
        "meta_arg_of_pericenter": 114.5616,
        "meta_mean_anomaly": 245.6182,
        "meta_ephemeris_type": 0,
        "meta_classification_type": "U",
        "meta_norad_cat_id": 40536,
        "meta_element_set_no": 999,
        "meta_rev_at_epoch": 59380,
        "meta_bstar": 0.00038982024,
        "meta_mean_motion_dot": 0.00017786,
        "meta_mean_motion_ddot": 0,
        "tle_line1": "1 40536U 15014A   25352.25364727  .00017786  00000+0  38982-3 0  9993",
        "tle_line2": "2 40536  97.6786 326.9053 0005277 114.5616 245.6182 15.44145175593806"
      },
      "geometry": {
        "type": "Point",
        "coordinates": [
          137.2521967592794,
          -52.26136209920565
        ]
      }
    },
    {
      "type": "Feature",
      "properties": {
        "norad_id": 40697,
        "name": "SENTINEL-2A",
        "group": "resource",
        "lat": 3.5669783604697494,
        "lon": -114.39243093548153,
        "alt_km": 791.473031185612,
        "timestamp": "2025-12-18T14:52:07.687665+00:00",
        "meta_object_name": "SENTINEL-2A",
        "meta_object_id": "2015-028A",
        "meta_epoch": "2025-12-18T07:20:03.592032",
        "meta_mean_motion": 14.30807747,
        "meta_eccentricity": 0.00010526,
        "meta_inclination": 98.5745,
        "meta_ra_of_asc_node": 64.7591,
        "meta_arg_of_pericenter": 88.3188,
        "meta_mean_anomaly": 271.8115,
        "meta_ephemeris_type": 0,
        "meta_classification_type": "U",
        "meta_norad_cat_id": 40697,
        "meta_element_set_no": 999,
        "meta_rev_at_epoch": 54786,
        "meta_bstar": 8.9129703e-05,
        "meta_mean_motion_dot": 1.9e-06,
        "meta_mean_motion_ddot": 0,
        "tle_line1": "1 40697U 15028A   25352.30559713  .00000190  00000+0  89130-4 0  9996",
        "tle_line2": "2 40697  98.5745  64.7591 0001052  88.3188 271.8115 14.30807747547868"
      },
      "geometry": {
        "type": "Point",
        "coordinates": [
          -114.39243093548153,
          3.5669783604697494
        ]
      }
    },
    {
      "type": "Feature",
      "properties": {
        "norad_id": 40701,
        "name": "GAOFEN-8",
        "group": "resource",
        "lat": -18.11798512368559,
        "lon": 173.58023586215538,
        "alt_km": 460.8686518285658,
        "timestamp": "2025-12-18T14:52:07.687675+00:00",
        "meta_object_name": "GAOFEN-8",
        "meta_object_id": "2015-030A",
        "meta_epoch": "2025-12-18T07:08:40.320960",
        "meta_mean_motion": 15.38725697,
        "meta_eccentricity": 0.00118824,
        "meta_inclination": 97.6902,
        "meta_ra_of_asc_node": 170.7087,
        "meta_arg_of_pericenter": 119.575,
        "meta_mean_anomaly": 240.6681,
        "meta_ephemeris_type": 0,
        "meta_classification_type": "U",
        "meta_norad_cat_id": 40701,
        "meta_element_set_no": 999,
        "meta_rev_at_epoch": 58356,
        "meta_bstar": 0.00029890381,
        "meta_mean_motion_dot": 0.00011381,
        "meta_mean_motion_ddot": 0,
        "tle_line1": "1 40701U 15030A   25352.29768890  .00011381  00000+0  29890-3 0  9991",
        "tle_line2": "2 40701  97.6902 170.7087 0011882 119.5750 240.6681 15.38725697583562"
      },
      "geometry": {
        "type": "Point",
        "coordinates": [
          173.58023586215538,
          -18.11798512368559
        ]
      }
    },
    {
      "type": "Feature",
      "properties": {
        "norad_id": 40718,
        "name": "CARBONITE 1 (CBNT-1)",
        "group": "resource",
        "lat": 7.786932335738678,
        "lon": -5.5444886339242085,
        "alt_km": 612.3318511880088,
        "timestamp": "2025-12-18T14:52:07.687685+00:00",
        "meta_object_name": "CARBONITE 1 (CBNT-1)",
        "meta_object_id": "2015-032D",
        "meta_epoch": "2025-12-18T07:37:02.730144",
        "meta_mean_motion": 14.82767543,
        "meta_eccentricity": 0.00148234,
        "meta_inclination": 97.6395,
        "meta_ra_of_asc_node": 173.1151,
        "meta_arg_of_pericenter": 163.3354,
        "meta_mean_anomaly": 196.835,
        "meta_ephemeris_type": 0,
        "meta_classification_type": "U",
        "meta_norad_cat_id": 40718,
        "meta_element_set_no": 999,
        "meta_rev_at_epoch": 56253,
        "meta_bstar": 0.00016634945,
        "meta_mean_motion_dot": 1.296e-05,
        "meta_mean_motion_ddot": 0,
        "tle_line1": "1 40718U 15032D   25352.31739271  .00001296  00000+0  16635-3 0  9992",
        "tle_line2": "2 40718  97.6395 173.1151 0014823 163.3354 196.8350 14.82767543562533"
      },
      "geometry": {
        "type": "Point",
        "coordinates": [
          -5.5444886339242085,
          7.786932335738678
        ]
      }
    },
    {
      "type": "Feature",
      "properties": {
        "norad_id": 40878,
        "name": "YAOGAN-27",
        "group": "resource",
        "lat": -51.43593752832694,
        "lon": -5.107675948719505,
        "alt_km": 1201.9160921399016,
        "timestamp": "2025-12-18T14:52:07.687696+00:00",
        "meta_object_name": "YAOGAN-27",
        "meta_object_id": "2015-040A",
        "meta_epoch": "2025-12-18T06:00:45.936288",
        "meta_mean_motion": 13.16062418,
        "meta_eccentricity": 0.00075637,
        "meta_inclination": 100.1007,
        "meta_ra_of_asc_node": 341.6214,
        "meta_arg_of_pericenter": 273.0945,
        "meta_mean_anomaly": 86.9304,
        "meta_ephemeris_type": 0,
        "meta_classification_type": "U",
        "meta_norad_cat_id": 40878,
        "meta_element_set_no": 999,
        "meta_rev_at_epoch": 49386,
        "meta_bstar": 0.0011155455,
        "meta_mean_motion_dot": 3.81e-06,
        "meta_mean_motion_ddot": 0,
        "tle_line1": "1 40878U 15040A   25352.25053167  .00000381  00000+0  11155-2 0  9999",
        "tle_line2": "2 40878 100.1007 341.6214 0007563 273.0945  86.9304 13.16062418493862"
      },
      "geometry": {
        "type": "Point",
        "coordinates": [
          -5.107675948719505,
          -51.43593752832694
        ]
      }
    },
    {
      "type": "Feature",
      "properties": {
        "norad_id": 40894,
        "name": "GAOFEN-9 01",
        "group": "resource",
        "lat": 81.43735879141768,
        "lon": -31.94304442737928,
        "alt_km": 607.6926310261533,
        "timestamp": "2025-12-18T14:52:07.687706+00:00",
        "meta_object_name": "GAOFEN-9 01",
        "meta_object_id": "2015-047A",
        "meta_epoch": "2025-12-18T06:23:01.038336",
        "meta_mean_motion": 14.82436005,
        "meta_eccentricity": 0.00279564,
        "meta_inclination": 97.6536,
        "meta_ra_of_asc_node": 30.9827,
        "meta_arg_of_pericenter": 16.6099,
        "meta_mean_anomaly": 343.6024,
        "meta_ephemeris_type": 0,
        "meta_classification_type": "U",
        "meta_norad_cat_id": 40894,
        "meta_element_set_no": 999,
        "meta_rev_at_epoch": 55338,
        "meta_bstar": 0.00012291915,
        "meta_mean_motion_dot": 9.41e-06,
        "meta_mean_motion_ddot": 0,
        "tle_line1": "1 40894U 15047A   25352.26598424  .00000941  00000+0  12292-3 0  9991",
        "tle_line2": "2 40894  97.6536  30.9827 0027956  16.6099 343.6024 14.82436005553381"
      },
      "geometry": {
        "type": "Point",
        "coordinates": [
          -31.94304442737928,
          81.43735879141768
        ]
      }
    }
  ]
}